GLOBALSTAR M024         
1 25883U 99043A   25347.00769554 -.00000104  00000+0 -13818-2 0  9997
2 25883  52.0046 337.1395 0001619  26.1251   6.0018 11.10166806134722
GLOBALSTAR M027         
1 25884U 99043B   25346.89592188 -.00000071  00000+0 -26640-3 0  9992
2 25884  52.0232  60.4357 0020958 278.9035  80.9386 11.04372130160986
GLOBALSTAR M054         
1 25885U 99043C   25346.87845488 -.00000044  00000+0  69988-3 0  9996
2 25885  52.0100 157.7862 0005971 118.2519  30.6993 11.39224821139414
GLOBALSTAR M053         
1 25886U 99043D   25346.88324696 -.00000050  00000+0  53068-3 0  9990
2 25886  51.9971 114.7830 0003635  45.4877  99.2750 11.27669000139602
GLOBALSTAR M058         
1 25907U 99049A   25346.73956158 -.00000083  00000+0  19874-4 0  9992
2 25907  51.9968 352.3896 0001732 256.1554 103.9088 11.93206714562859
GLOBALSTAR M050         
1 25908U 99049B   25347.01371542 -.00000138  00000+0 -56202-3 0  9990
2 25908  52.0011 345.9732 0009271  28.5422   2.0129 12.07461886169799
GLOBALSTAR M033         
1 25909U 99049C   25346.99418118 -.00000027  00000+0  62520-3 0  9994
2 25909  51.9886 205.5100 0013122 274.0432  85.8916 12.20294397557573
GLOBALSTAR M055         
1 25910U 99049D   25346.95467411 -.00000058  00000+0  30958-3 0  9996
2 25910  51.9995 207.6632 0007555 134.5615 225.5854 12.29437916190274
